start=new Date('2022-08-20T00:00:00.000Z').valueOf();
sats=[{"MEAN_MOTION_DOT":"0.00001113","CENTER_NAME":"EARTH","CLASSIFICATION_TYPE":"U","SEMIMAJOR_AXIS":"6925.363","MEAN_MOTION_DDOT":"0.0000000000000","PERIAPSIS":"546.387","ARG_OF_PERICENTER":"76.4780","EPOCH":"2022-08-19T11:32:13.014816","SITE":"AFETR","FILE":"3540406","MEAN_MOTION":"15.06395246","ELEMENT_SET_NO":"999","REF_FRAME":"TEME","GP_ID":"210515993","MEAN_ANOMALY":"283.6344","OBJECT_NAME":"STARLINK-2370","REV_AT_EPOCH":"8053","LAUNCH_DATE":"2021-03-14","OBJECT_ID":"2021-021BC","RA_OF_ASC_NODE":"339.5192","EPHEMERIS_TYPE":"0","INCLINATION":"53.0554","DECAY_DATE":null,"APOAPSIS":"548.069","PERIOD":"95.592","OBJECT_TYPE":"PAYLOAD","ECCENTRICITY":"0.00012140","COUNTRY_CODE":"US","BSTAR":"0.00009359500000","TLE_LINE1":"1 47910U 21021BC  22231.48070619  .00001113  00000-0  93595-4 0  9993","NORAD_CAT_ID":"47910","RCS_SIZE":"LARGE","TIME_SYSTEM":"UTC","TLE_LINE2":"2 47910  53.0554 339.5192 0001214  76.4780 283.6344 15.06395246 80534","MEAN_ELEMENT_THEORY":"SGP4"},{"ELEMENT_SET_NO":"999","REF_FRAME":"TEME","MEAN_MOTION":"15.06401573","LAUNCH_DATE":"2021-03-14","REV_AT_EPOCH":"8015","OBJECT_NAME":"STARLINK-2371","GP_ID":"210519863","MEAN_ANOMALY":"268.6756","ARG_OF_PERICENTER":"91.4371","PERIAPSIS":"546.376","SITE":"AFETR","FILE":"3540440","EPOCH":"2022-08-19T11:55:29.553312","MEAN_MOTION_DDOT":"0.0000000000000","SEMIMAJOR_AXIS":"6925.344","MEAN_MOTION_DOT":"0.00001227","CLASSIFICATION_TYPE":"U","CENTER_NAME":"EARTH","RCS_SIZE":"LARGE","NORAD_CAT_ID":"47911","BSTAR":"0.00010126000000","TLE_LINE1":"1 47911U 21021BD  22231.49686983  .00001227  00000-0  10126-3 0  9996","TLE_LINE2":"2 47911  53.0555 354.6771 0001202  91.4371 268.6756 15.06401573 80156","MEAN_ELEMENT_THEORY":"SGP4","TIME_SYSTEM":"UTC","COUNTRY_CODE":"US","ECCENTRICITY":"0.00012020","PERIOD":"95.592","APOAPSIS":"548.041","DECAY_DATE":null,"OBJECT_TYPE":"PAYLOAD","RA_OF_ASC_NODE":"354.6771","EPHEMERIS_TYPE":"0","OBJECT_ID":"2021-021BD","INCLINATION":"53.0555"},{"LAUNCH_DATE":"2021-03-14","OBJECT_NAME":"STARLINK-2372","REV_AT_EPOCH":"8036","MEAN_ANOMALY":"276.3546","GP_ID":"210515503","ELEMENT_SET_NO":"999","REF_FRAME":"TEME","MEAN_MOTION":"15.06402967","SITE":"AFETR","FILE":"3540406","EPOCH":"2022-08-19T11:21:34.860096","ARG_OF_PERICENTER":"83.7593","PERIAPSIS":"546.294","MEAN_MOTION_DDOT":"0.0000000000000","SEMIMAJOR_AXIS":"6925.339","CLASSIFICATION_TYPE":"U","CENTER_NAME":"EARTH","MEAN_MOTION_DOT":"0.00000379","MEAN_ELEMENT_THEORY":"SGP4","TLE_LINE2":"2 47912  53.0558 339.5390 0001315  83.7593 276.3546 15.06402967 80368","TIME_SYSTEM":"UTC","RCS_SIZE":"LARGE","NORAD_CAT_ID":"47912","BSTAR":"0.00004432600000","TLE_LINE1":"1 47912U 21021BE  22231.47332014  .00000379  00000-0  44326-4 0  9995","COUNTRY_CODE":"US","ECCENTRICITY":"0.00013150","OBJECT_TYPE":"PAYLOAD","PERIOD":"95.592","APOAPSIS":"548.115","DECAY_DATE":null,"INCLINATION":"53.0558","RA_OF_ASC_NODE":"339.5390","EPHEMERIS_TYPE":"0","OBJECT_ID":"2021-021BE"},{"ELEMENT_SET_NO":"999","REF_FRAME":"TEME","MEAN_MOTION":"15.06409230","LAUNCH_DATE":"2021-03-14","REV_AT_EPOCH":"8038","OBJECT_NAME":"STARLINK-2374","GP_ID":"210516251","MEAN_ANOMALY":"259.9469","ARG_OF_PERICENTER":"100.1696","PERIAPSIS":"546.106","FILE":"3540406","SITE":"AFETR","EPOCH":"2022-08-19T11:32:18.079584","MEAN_MOTION_DDOT":"0.0000000000000","SEMIMAJOR_AXIS":"6925.320","MEAN_MOTION_DOT":"0.00001118","CLASSIFICATION_TYPE":"U","CENTER_NAME":"EARTH","RCS_SIZE":"LARGE","NORAD_CAT_ID":"47913","BSTAR":"0.00009388700000","TLE_LINE1":"1 47913U 21021BF  22231.48076481  .00001118  00000-0  93887-4 0  9998","MEAN_ELEMENT_THEORY":"SGP4","TLE_LINE2":"2 47913  53.0560 349.9843 0001559 100.1696 259.9469 15.06409230 80381","TIME_SYSTEM":"UTC","COUNTRY_CODE":"US","ECCENTRICITY":"0.00015590","PERIOD":"95.592","APOAPSIS":"548.265","DECAY_DATE":null,"OBJECT_TYPE":"PAYLOAD","EPHEMERIS_TYPE":"0","RA_OF_ASC_NODE":"349.9843","OBJECT_ID":"2021-021BF","INCLINATION":"53.0560"},{"REV_AT_EPOCH":"8043","OBJECT_NAME":"STARLINK-2375","LAUNCH_DATE":"2021-03-14","GP_ID":"210545557","MEAN_ANOMALY":"275.2112","ELEMENT_SET_NO":"999","REF_FRAME":"TEME","MEAN_MOTION":"15.06387631","FILE":"3540705","SITE":"AFETR","EPOCH":"2022-08-19T19:56:29.574240","ARG_OF_PERICENTER":"84.9011","PERIAPSIS":"546.437","MEAN_MOTION_DDOT":"0.0000000000000","SEMIMAJOR_AXIS":"6925.386","CENTER_NAME":"EARTH","CLASSIFICATION_TYPE":"U","MEAN_MOTION_DOT":"0.00000616","TIME_SYSTEM":"UTC","MEAN_ELEMENT_THEORY":"SGP4","TLE_LINE2":"2 47914  53.0542 347.9472 0001176  84.9011 275.2112 15.06387631 80435","NORAD_CAT_ID":"47914","RCS_SIZE":"LARGE","TLE_LINE1":"1 47914U 21021BG  22231.83089785  .00000616  00000-0  60242-4 0  9990","BSTAR":"0.00006024200000","ECCENTRICITY":"0.00011760","COUNTRY_CODE":"US","OBJECT_TYPE":"PAYLOAD","PERIOD":"95.593","DECAY_DATE":null,"APOAPSIS":"548.066","INCLINATION":"53.0542","RA_OF_ASC_NODE":"347.9472","EPHEMERIS_TYPE":"0","OBJECT_ID":"2021-021BG"},{"OBJECT_ID":"2021-021BH","EPHEMERIS_TYPE":"0","RA_OF_ASC_NODE":"344.4288","INCLINATION":"53.0548","DECAY_DATE":null,"APOAPSIS":"548.234","PERIOD":"95.592","OBJECT_TYPE":"PAYLOAD","ECCENTRICITY":"0.00014900","COUNTRY_CODE":"US","BSTAR":"0.00013955000000","TLE_LINE1":"1 47915U 21021BH  22231.49776703  .00001798  00000-0  13955-3 0  9996","RCS_SIZE":"LARGE","NORAD_CAT_ID":"47915","TIME_SYSTEM":"UTC","TLE_LINE2":"2 47915  53.0548 344.4288 0001490  95.1771 264.9388 15.06403785 80467","MEAN_ELEMENT_THEORY":"SGP4","MEAN_MOTION_DOT":"0.00001798","CENTER_NAME":"EARTH","CLASSIFICATION_TYPE":"U","SEMIMAJOR_AXIS":"6925.337","MEAN_MOTION_DDOT":"0.0000000000000","PERIAPSIS":"546.170","ARG_OF_PERICENTER":"95.1771","EPOCH":"2022-08-19T11:56:47.071392","FILE":"3540406","SITE":"AFETR","MEAN_MOTION":"15.06403785","ELEMENT_SET_NO":"999","REF_FRAME":"TEME","GP_ID":"210514754","MEAN_ANOMALY":"264.9388","OBJECT_NAME":"STARLINK-2376","REV_AT_EPOCH":"8046","LAUNCH_DATE":"2021-03-14"},{"PERIOD":"95.592","APOAPSIS":"548.084","DECAY_DATE":null,"OBJECT_TYPE":"PAYLOAD","EPHEMERIS_TYPE":"0","RA_OF_ASC_NODE":"328.6659","OBJECT_ID":"2021-021BJ","INCLINATION":"53.0546","NORAD_CAT_ID":"47916","RCS_SIZE":"LARGE","BSTAR":"0.00021873000000","TLE_LINE1":"1 47916U 21021BJ  22231.67054273  .00002979  00000-0  21873-3 0  9998","TLE_LINE2":"2 47916  53.0546 328.6659 0001295  96.1633 263.9503 15.06408631 80679","MEAN_ELEMENT_THEORY":"SGP4","TIME_SYSTEM":"UTC","COUNTRY_CODE":"US","ECCENTRICITY":"0.00012950","MEAN_MOTION_DDOT":"0.0000000000000","SEMIMAJOR_AXIS":"6925.322","MEAN_MOTION_DOT":"0.00002979","CLASSIFICATION_TYPE":"U","CENTER_NAME":"EARTH","ELEMENT_SET_NO":"999","REF_FRAME":"TEME","MEAN_MOTION":"15.06408631","LAUNCH_DATE":"2021-03-14","REV_AT_EPOCH":"8067","OBJECT_NAME":"STARLINK-2378","GP_ID":"210546559","MEAN_ANOMALY":"263.9503","ARG_OF_PERICENTER":"96.1633","PERIAPSIS":"546.290","SITE":"AFETR","FILE":"3540705","EPOCH":"2022-08-19T16:05:34.891872"},{"COUNTRY_CODE":"US","ECCENTRICITY":"0.00013620","RCS_SIZE":"LARGE","NORAD_CAT_ID":"47917","TLE_LINE1":"1 47917U 21021BK  22231.67699179  .00003371  00000-0  24508-3 0  9994","BSTAR":"0.00024508000000","MEAN_ELEMENT_THEORY":"SGP4","TLE_LINE2":"2 47917  53.0542 338.6214 0001362  89.8096 270.3049 15.06405650 80520","TIME_SYSTEM":"UTC","EPHEMERIS_TYPE":"0","RA_OF_ASC_NODE":"338.6214","OBJECT_ID":"2021-021BK","INCLINATION":"53.0542","PERIOD":"95.592","APOAPSIS":"548.139","DECAY_DATE":null,"OBJECT_TYPE":"PAYLOAD","ARG_OF_PERICENTER":"89.8096","PERIAPSIS":"546.253","SITE":"AFETR","FILE":"3540705","EPOCH":"2022-08-19T16:14:52.090656","ELEMENT_SET_NO":"999","REF_FRAME":"TEME","MEAN_MOTION":"15.06405650","LAUNCH_DATE":"2021-03-14","REV_AT_EPOCH":"8052","OBJECT_NAME":"STARLINK-2397","MEAN_ANOMALY":"270.3049","GP_ID":"210546810","MEAN_MOTION_DOT":"0.00003371","CLASSIFICATION_TYPE":"U","CENTER_NAME":"EARTH","MEAN_MOTION_DDOT":"0.0000000000000","SEMIMAJOR_AXIS":"6925.331"},{"ECCENTRICITY":"0.00013630","COUNTRY_CODE":"US","TIME_SYSTEM":"UTC","MEAN_ELEMENT_THEORY":"SGP4","TLE_LINE2":"2 47918  53.0554 338.6017 0001363  86.1185 273.9960 15.06405172 80558","BSTAR":"0.00005437900000","TLE_LINE1":"1 47918U 21021BL  22231.68435859  .00000529  00000-0  54379-4 0  9991","NORAD_CAT_ID":"47918","RCS_SIZE":"LARGE","INCLINATION":"53.0554","OBJECT_ID":"2021-021BL","EPHEMERIS_TYPE":"0","RA_OF_ASC_NODE":"338.6017","OBJECT_TYPE":"PAYLOAD","DECAY_DATE":null,"APOAPSIS":"548.142","PERIOD":"95.592","EPOCH":"2022-08-19T16:25:28.582176","FILE":"3540705","SITE":"AFETR","PERIAPSIS":"546.254","ARG_OF_PERICENTER":"86.1185","MEAN_ANOMALY":"273.9960","GP_ID":"210546057","REV_AT_EPOCH":"8055","OBJECT_NAME":"STARLINK-2398","LAUNCH_DATE":"2021-03-14","MEAN_MOTION":"15.06405172","ELEMENT_SET_NO":"999","REF_FRAME":"TEME","CENTER_NAME":"EARTH","CLASSIFICATION_TYPE":"U","MEAN_MOTION_DOT":"0.00000529","SEMIMAJOR_AXIS":"6925.333","MEAN_MOTION_DDOT":"0.0000000000000"},{"ARG_OF_PERICENTER":"80.0113","PERIAPSIS":"546.187","FILE":"3540013","SITE":"AFETR","EPOCH":"2022-08-19T11:16:18.260256","ELEMENT_SET_NO":"999","REF_FRAME":"TEME","MEAN_MOTION":"15.06406472","LAUNCH_DATE":"2021-03-14","REV_AT_EPOCH":"7988","OBJECT_NAME":"STARLINK-2405","GP_ID":"210485307","MEAN_ANOMALY":"280.1040","MEAN_MOTION_DOT":"0.00000067","CLASSIFICATION_TYPE":"U","CENTER_NAME":"EARTH","MEAN_MOTION_DDOT":"0.0000000000000","SEMIMAJOR_AXIS":"6925.329","COUNTRY_CODE":"US","ECCENTRICITY":"0.00014530","RCS_SIZE":"LARGE","NORAD_CAT_ID":"47919","TLE_LINE1":"1 47919U 21021BM  22231.46965579  .00000067  00000-0  23397-4 0  9998","BSTAR":"0.00002339700000","TLE_LINE2":"2 47919  53.0556 349.5523 0001453  80.0113 280.1040 15.06406472 79885","MEAN_ELEMENT_THEORY":"SGP4","TIME_SYSTEM":"UTC","RA_OF_ASC_NODE":"349.5523","EPHEMERIS_TYPE":"0","OBJECT_ID":"2021-021BM","INCLINATION":"53.0556","PERIOD":"95.592","APOAPSIS":"548.200","DECAY_DATE":null,"OBJECT_TYPE":"PAYLOAD"}];
